{"type": "FeatureCollection", "features": [{"type": "Feature", "properties": {"norad_id": 25590, "name": "COSMOS 2361", "group": "musson", "lat": 35.517461833884084, "lon": 161.78721372644313, "alt_km": 1000.5227707568947, "timestamp": "2025-12-08T23:34:04.239107+00:00", "meta": {"OBJECT_NAME": "COSMOS 2361", "OBJECT_ID": "1998-076A", "EPOCH": "2025-12-08T12:55:48.158976", "MEAN_MOTION": 13.73216831, "ECCENTRICITY": 0.00300705, "INCLINATION": 82.9338, "RA_OF_ASC_NODE": 347.1939, "ARG_OF_PERICENTER": 277.8257, "MEAN_ANOMALY": 196.5408, "EPHEMERIS_TYPE": 0, "CLASSIFICATION_TYPE": "U", "NORAD_CAT_ID": 25590, "ELEMENT_SET_NO": 999, "REV_AT_EPOCH": 35053, "BSTAR": 8.8363531e-05, "MEAN_MOTION_DOT": 9.7e-07, "MEAN_MOTION_DDOT": 0}, "tle": {"line1": "1 25590U 98076A   25342.53875184  .00000097  00000+0  88364-4 0  9996", "line2": "2 25590  82.9338 347.1939 0030070 277.8257 196.5408 13.73216831350534"}}, "geometry": {"type": "Point", "coordinates": [161.78721372644313, 35.517461833884084]}}, {"type": "Feature", "properties": {"norad_id": 26818, "name": "COSMOS 2378", "group": "musson", "lat": -24.31120214566063, "lon": -174.27333545300996, "alt_km": 966.9661544671026, "timestamp": "2025-12-08T23:34:04.239129+00:00", "meta": {"OBJECT_NAME": "COSMOS 2378", "OBJECT_ID": "2001-023A", "EPOCH": "2025-12-08T14:24:11.880000", "MEAN_MOTION": 13.74141502, "ECCENTRICITY": 0.00321727, "INCLINATION": 82.9273, "RA_OF_ASC_NODE": 2.7946, "ARG_OF_PERICENTER": 216.6396, "MEAN_ANOMALY": 259.8884, "EPHEMERIS_TYPE": 0, "CLASSIFICATION_TYPE": "U", "NORAD_CAT_ID": 26818, "ELEMENT_SET_NO": 999, "REV_AT_EPOCH": 22866, "BSTAR": 6.3311891e-05, "MEAN_MOTION_DOT": 7.5e-07, "MEAN_MOTION_DDOT": 0}, "tle": {"line1": "1 26818U 01023A   25342.60013750  .00000075  00000+0  63312-4 0  9999", "line2": "2 26818  82.9273   2.7946 0032172 216.6396 259.8884 13.74141502228660"}}, "geometry": {"type": "Point", "coordinates": [-174.27333545300996, -24.31120214566063]}}, {"type": "Feature", "properties": {"norad_id": 27436, "name": "COSMOS 2389", "group": "musson", "lat": 36.99867227082526, "lon": -44.8828099826661, "alt_km": 949.109606224255, "timestamp": "2025-12-08T23:34:04.239143+00:00", "meta": {"OBJECT_NAME": "COSMOS 2389", "OBJECT_ID": "2002-026A", "EPOCH": "2025-12-08T15:29:48.528384", "MEAN_MOTION": 13.75154027, "ECCENTRICITY": 0.00477097, "INCLINATION": 82.9499, "RA_OF_ASC_NODE": 310.0157, "ARG_OF_PERICENTER": 71.8624, "MEAN_ANOMALY": 101.9558, "EPHEMERIS_TYPE": 0, "CLASSIFICATION_TYPE": "U", "NORAD_CAT_ID": 27436, "ELEMENT_SET_NO": 999, "REV_AT_EPOCH": 18092, "BSTAR": 9.6125553e-05, "MEAN_MOTION_DOT": 1.08e-06, "MEAN_MOTION_DDOT": 0}, "tle": {"line1": "1 27436U 02026A   25342.64570056  .00000108  00000+0  96126-4 0  9997", "line2": "2 27436  82.9499 310.0157 0047709  71.8624 101.9558 13.75154027180921"}}, "geometry": {"type": "Point", "coordinates": [-44.8828099826661, 36.99867227082526]}}, {"type": "Feature", "properties": {"norad_id": 27818, "name": "COSMOS 2398", "group": "musson", "lat": 27.10057861152309, "lon": -80.9009282815605, "alt_km": 991.6442722841903, "timestamp": "2025-12-08T23:34:04.239154+00:00", "meta": {"OBJECT_NAME": "COSMOS 2398", "OBJECT_ID": "2003-023A", "EPOCH": "2025-12-08T13:46:36.876288", "MEAN_MOTION": 13.7238505, "ECCENTRICITY": 0.00324319, "INCLINATION": 82.9482, "RA_OF_ASC_NODE": 275.768, "ARG_OF_PERICENTER": 122.9501, "MEAN_ANOMALY": 50.4364, "EPHEMERIS_TYPE": 0, "CLASSIFICATION_TYPE": "U", "NORAD_CAT_ID": 27818, "ELEMENT_SET_NO": 999, "REV_AT_EPOCH": 12759, "BSTAR": 9.4277566e-05, "MEAN_MOTION_DOT": 1.02e-06, "MEAN_MOTION_DDOT": 0}, "tle": {"line1": "1 27818U 03023A   25342.57403792  .00000102  00000+0  94278-4 0  9993", "line2": "2 27818  82.9482 275.7680 0032431 122.9501  50.4364 13.72385050127599"}}, "geometry": {"type": "Point", "coordinates": [-80.9009282815605, 27.10057861152309]}}, {"type": "Feature", "properties": {"norad_id": 28380, "name": "COSMOS 2407", "group": "musson", "lat": 8.913727532553535, "lon": 34.564439416423824, "alt_km": 986.7001814442656, "timestamp": "2025-12-08T23:34:04.239165+00:00", "meta": {"OBJECT_NAME": "COSMOS 2407", "OBJECT_ID": "2004-028A", "EPOCH": "2025-12-08T16:00:58.962240", "MEAN_MOTION": 13.76313059, "ECCENTRICITY": 0.00404438, "INCLINATION": 82.9612, "RA_OF_ASC_NODE": 215.9077, "ARG_OF_PERICENTER": 65.8914, "MEAN_ANOMALY": 346.471, "EPHEMERIS_TYPE": 0, "CLASSIFICATION_TYPE": "U", "NORAD_CAT_ID": 28380, "ELEMENT_SET_NO": 999, "REV_AT_EPOCH": 7367, "BSTAR": 9.5578726e-05, "MEAN_MOTION_DOT": 1.09e-06, "MEAN_MOTION_DDOT": 0}, "tle": {"line1": "1 28380U 04028A   25342.66734910  .00000109  00000+0  95579-4 0  9995", "line2": "2 28380  82.9612 215.9077 0040443  65.8914 346.4710 13.76313059 73676"}}, "geometry": {"type": "Point", "coordinates": [34.564439416423824, 8.913727532553535]}}, {"type": "Feature", "properties": {"norad_id": 28521, "name": "COSMOS 2414", "group": "musson", "lat": -79.57808558752652, "lon": 145.21528822403215, "alt_km": 961.3864538567204, "timestamp": "2025-12-08T23:34:04.239176+00:00", "meta": {"OBJECT_NAME": "COSMOS 2414", "OBJECT_ID": "2005-002A", "EPOCH": "2025-12-08T15:18:56.511648", "MEAN_MOTION": 13.87902258, "ECCENTRICITY": 0.00406618, "INCLINATION": 82.9496, "RA_OF_ASC_NODE": 187.7614, "ARG_OF_PERICENTER": 151.2073, "MEAN_ANOMALY": 209.1347, "EPHEMERIS_TYPE": 0, "CLASSIFICATION_TYPE": "U", "NORAD_CAT_ID": 28521, "ELEMENT_SET_NO": 999, "REV_AT_EPOCH": 5738, "BSTAR": 8.6489487e-05, "MEAN_MOTION_DOT": 1.19e-06, "MEAN_MOTION_DDOT": 0}, "tle": {"line1": "1 28521U 05002A   25342.63815407  .00000119  00000+0  86489-4 0  9994", "line2": "2 28521  82.9496 187.7614 0040661 151.2073 209.1347 13.87902258 57382"}}, "geometry": {"type": "Point", "coordinates": [145.21528822403215, -79.57808558752652]}}, {"type": "Feature", "properties": {"norad_id": 32052, "name": "COSMOS 2429", "group": "musson", "lat": -43.36271710615399, "lon": 172.76157949026793, "alt_km": 1016.7211745077893, "timestamp": "2025-12-08T23:34:04.239186+00:00", "meta": {"OBJECT_NAME": "COSMOS 2429", "OBJECT_ID": "2007-038A", "EPOCH": "2025-12-08T12:00:27.726624", "MEAN_MOTION": 13.75148764, "ECCENTRICITY": 0.00394415, "INCLINATION": 82.9803, "RA_OF_ASC_NODE": 346.4344, "ARG_OF_PERICENTER": 49.3931, "MEAN_ANOMALY": 311.0645, "EPHEMERIS_TYPE": 0, "CLASSIFICATION_TYPE": "U", "NORAD_CAT_ID": 32052, "ELEMENT_SET_NO": 999, "REV_AT_EPOCH": 91544, "BSTAR": 7.0068851e-05, "MEAN_MOTION_DOT": 8.3e-07, "MEAN_MOTION_DDOT": 0}, "tle": {"line1": "1 32052U 07038A   25342.50032091  .00000083  00000+0  70069-4 0  9992", "line2": "2 32052  82.9803 346.4344 0039441  49.3931 311.0645 13.75148764915441"}}, "geometry": {"type": "Point", "coordinates": [172.76157949026793, -43.36271710615399]}}, {"type": "Feature", "properties": {"norad_id": 35635, "name": "COSMOS 2454", "group": "musson", "lat": -59.28545745910442, "lon": 159.48103863777536, "alt_km": 948.0644029701643, "timestamp": "2025-12-08T23:34:04.239197+00:00", "meta": {"OBJECT_NAME": "COSMOS 2454", "OBJECT_ID": "2009-039A", "EPOCH": "2025-12-08T15:34:05.813760", "MEAN_MOTION": 13.89927869, "ECCENTRICITY": 0.00204811, "INCLINATION": 82.9556, "RA_OF_ASC_NODE": 171.7463, "ARG_OF_PERICENTER": 84.6683, "MEAN_ANOMALY": 348.6377, "EPHEMERIS_TYPE": 0, "CLASSIFICATION_TYPE": "U", "NORAD_CAT_ID": 35635, "ELEMENT_SET_NO": 999, "REV_AT_EPOCH": 83093, "BSTAR": 6.7381884e-05, "MEAN_MOTION_DOT": 9.9e-07, "MEAN_MOTION_DDOT": 0}, "tle": {"line1": "1 35635U 09039A   25342.64867840  .00000099  00000+0  67382-4 0  9999", "line2": "2 35635  82.9556 171.7463 0020481  84.6683 348.6377 13.89927869830931"}}, "geometry": {"type": "Point", "coordinates": [159.48103863777536, -59.28545745910442]}}, {"type": "Feature", "properties": {"norad_id": 36519, "name": "COSMOS 2463", "group": "musson", "lat": -46.60905965460971, "lon": -143.01701784162017, "alt_km": 992.3506860893403, "timestamp": "2025-12-08T23:34:04.239208+00:00", "meta": {"OBJECT_NAME": "COSMOS 2463", "OBJECT_ID": "2010-017A", "EPOCH": "2025-12-08T16:01:01.163712", "MEAN_MOTION": 13.71648756, "ECCENTRICITY": 0.00348854, "INCLINATION": 82.9616, "RA_OF_ASC_NODE": 29.7051, "ARG_OF_PERICENTER": 299.7752, "MEAN_ANOMALY": 174.897, "EPHEMERIS_TYPE": 0, "CLASSIFICATION_TYPE": "U", "NORAD_CAT_ID": 36519, "ELEMENT_SET_NO": 999, "REV_AT_EPOCH": 78181, "BSTAR": 9.0474417e-05, "MEAN_MOTION_DOT": 9.7e-07, "MEAN_MOTION_DDOT": 0}, "tle": {"line1": "1 36519U 10017A   25342.66737458  .00000097  00000+0  90474-4 0  9998", "line2": "2 36519  82.9616  29.7051 0034885 299.7752 174.8970 13.71648756781810"}}, "geometry": {"type": "Point", "coordinates": [-143.01701784162017, -46.60905965460971]}}]}